NORAD_CAT_ID,OBJECT_NAME,OBJECT_TYPE,EPOCH,MEAN_MOTION,ECCENTRICITY,INCLINATION,RA_OF_ASC_NODE,ARG_OF_PERICENTER,MEAN_ANOMALY,BSTAR,MEAN_MOTION_DOT,MEAN_MOTION_DDOT,TLE_LINE0,TLE_LINE1,TLE_LINE2,SEMIMAJOR_AXIS,PERIOD,APOGEE,PERIGEE,DECAYED
51975.0,STARLINK-3674,PAYLOAD,2022-03-16 14:00:01,15.82638548,0.0001104,53.2173,105.1685,75.3632,160.9465,-0.0045117,-0.00875424,0.0,0 STARLINK-3674,1 51975U 22025V   22075.58334491 -.00875424  00000-0 -45117-2 0  9993,2 51975  53.2173 105.1685 0001104  75.3632 160.9465 15.82638548  2393,6701.119000000002,90.987,323.724,322.244,0.0
51975.0,STARLINK-3674,PAYLOAD,2022-03-16 20:00:01,15.82168711,0.0001225,53.2176,103.9128,59.3777,161.9174,-0.0046363,-0.00879467,0.0,0 STARLINK-3674,1 51975U 22025V   22075.83334491 -.00879467  00000-0 -46363-2 0  9996,2 51975  53.2176 103.9128 0001225  59.3777 161.9174 15.82168711  1353,6702.446,91.014,325.132,323.49,0.0
51975.0,STARLINK-3674,PAYLOAD,2022-03-17 06:00:00,15.81380975,0.0001295,53.2174,101.8255,44.316,31.0083,-0.0047987,-0.00877446,0.0,0 STARLINK-3674,1 51975U 22025V   22076.25001157 -.00877446  00000-0 -47987-2 0  9991,2 51975  53.2174 101.8255 0001295  44.3160  31.0083 15.81380975  2495,6704.670999999999,91.06,327.405,325.668,0.0
51975.0,STARLINK-3674,PAYLOAD,2022-03-17 14:00:01,15.80751694,0.0001112,53.2171,100.1575,74.0911,99.6054,-0.0049385,-0.00876886,0.0,0 STARLINK-3674,1 51975U 22025V   22076.58334491 -.00876886  00000-0 -49385-2 0  9998,2 51975  53.2171 100.1575 0001112  74.0911  99.6054 15.80751694  1475,6706.451,91.096,329.061,327.57,0.0
51975.0,STARLINK-3674,PAYLOAD,2022-03-17 22:00:00,15.80120908,0.0001046,53.2174,98.488,87.978,183.3371,-0.0050696,-0.00874464,0.0,0 STARLINK-3674,1 51975U 22025V   22076.91667824 -.00874464  00000-0 -50696-2 0  9991,2 51975  53.2174  98.4880 0001046  87.9780 183.3371 15.80120908  1526,6708.235,91.132,330.802,329.399,0.0
51975.0,STARLINK-3674,PAYLOAD,2022-03-18 08:00:01,15.79277808,0.0001301,53.2178,96.4087,69.7736,52.5249,-0.0047664,-0.00798186,0.0,0 STARLINK-3674,1 51975U 22025V   22077.33334491 -.00798186  00000-0 -47664-2 0  9996,2 51975  53.2178  96.4087 0001301  69.7736  52.5249 15.79277808  2667,6710.623000000001,91.181,333.361,331.615,0.0
51975.0,STARLINK-3674,PAYLOAD,2022-03-18 14:00:01,15.78864391,0.0001125,53.2171,95.1599,60.8956,43.3821,-0.00539,-0.0087735,0.0,0 STARLINK-3674,1 51975U 22025V   22077.58334491 -.00877350  00000-0 -53900-2 0  9994,2 51975  53.2171  95.1599 0001125  60.8956  43.3821 15.78864391  1632,6711.794,91.205,334.414,332.904,0.0
51975.0,STARLINK-3674,PAYLOAD,2022-03-18 20:00:01,15.78389694,0.0001228,53.2174,93.9113,46.8718,38.9896,-0.0054741999999999,-0.00872552,0.0,0 STARLINK-3674,1 51975U 22025V   22077.83334491 -.00872552  00000-0 -54742-2 0  9996,2 51975  53.2174  93.9113 0001228  46.8718  38.9896 15.78389694  2740,6713.14,91.232,335.829,334.18,0.0
51975.0,STARLINK-3674,PAYLOAD,2022-03-18 22:00:00,15.78233899,0.0001288,53.2172,93.4953,55.2097,144.4175,-0.0055311,-0.00875159,0.0,0 STARLINK-3674,1 51975U 22025V   22077.91667824 -.00875159  00000-0 -55311-2 0  9993,2 51975  53.2172  93.4953 0001288  55.2097 144.4175 15.78233899  1685,6713.581,91.241,336.311,334.582,0.0
51975.0,STARLINK-3674,PAYLOAD,2022-03-19 14:00:01,15.76976253,9.48e-05,53.2171,90.1767,78.6274,309.4258,-0.005857,-0.00875513,0.0,0 STARLINK-3674,1 51975U 22025V   22078.58334491 -.00875513  00000-0 -58570-2 0  9992,2 51975  53.2171  90.1767 0000948  78.6274 309.4258 15.76976253  2861,6717.15,91.314,339.652,338.379,0.0
51975.0,STARLINK-3674,PAYLOAD,2022-03-19 22:00:01,15.76346184,0.0001229,53.2173,88.5165,53.784,67.4157,-0.0060233999999999,-0.00875508,0.0,0 STARLINK-3674,1 51975U 22025V   22078.91668981 -.00875508  00000-0 -60234-2 0  9997,2 51975  53.2173  88.5165 0001229  53.7840  67.4157 15.76346184  1842,6718.94,91.35,341.631,339.9790000000001,0.0
51975.0,STARLINK-3674,PAYLOAD,2022-03-20 12:00:00,15.752417800000002,0.0001216,53.2172,85.6211,67.1769,125.0258,-0.0062733,-0.00868996,0.0,0 STARLINK-3674,1 51975U 22025V   22079.50001157 -.00868996  00000-0 -62733-2 0  9998,2 51975  53.2172  85.6211 0001216  67.1769 125.0258 15.75241780  3004,6722.08,91.415,344.76300000000015,343.1280000000001,0.0
51975.0,STARLINK-3674,PAYLOAD,2022-03-20 14:00:01,15.75088561,0.0001051,53.2172,85.2069,72.3551,232.6673,-0.0063698,-0.00875665,0.0,0 STARLINK-3674,1 51975U 22025V   22079.58334491 -.00875665  00000-0 -63698-2 0  9998,2 51975  53.2172  85.2069 0001051  72.3551 232.6673 15.75088561  1959,6722.516,91.423,345.088,343.675,0.0
51975.0,STARLINK-3674,PAYLOAD,2022-03-20 22:00:01,15.74457044,0.0001074,53.2172,83.5517,58.322,337.579,-0.0065298,-0.00873392,0.0,0 STARLINK-3674,1 51975U 22025V   22079.91668981 -.00873392  00000-0 -65298-2 0  9992,2 51975  53.2172  83.5517 0001074  58.3220 337.5790 15.74457044  2007,6724.314,91.46,346.901,345.456,0.0
51975.0,STARLINK-3674,PAYLOAD,2022-03-21 06:00:00,15.73749591,0.0001401,53.2171,81.9018,42.6334,83.2706,-0.0051452,-0.00682915,0.0,0 STARLINK-3674,1 51975U 22025V   22080.25001157 -.00682915  00000-0 -51452-2 0  9993,2 51975  53.2171  81.9018 0001401  42.6334  83.2706 15.73749591  3126,6726.329000000002,91.501,349.136,347.251,0.0
51975.0,STARLINK-3674,PAYLOAD,2022-03-21 14:00:01,15.73206382,0.0001172,53.2171,80.2514,70.70100000000002,144.4882,-3.5409e-05,-5.587e-05,0.0,0 STARLINK-3674,1 51975U 22025V   22080.58334491 -.00005587  00000-0 -35409-4 0  9999,2 51975  53.2171  80.2514 0001172  70.7010 144.4882 15.73206382  3173,6727.877,91.533,350.53,348.95300000000015,0.0
51975.0,STARLINK-3674,PAYLOAD,2022-03-21 22:00:00,15.73205107,0.0001162,53.2174,78.6,62.5868,241.5375,-8.6485e-06,-1.833e-05,0.0,0 STARLINK-3674,1 51975U 22025V   22080.91667824 -.00001833  00000-0 -86485-5 0  9996,2 51975  53.2174  78.6000 0001162  62.5868 241.5375 15.73205107  2164,6727.880999999999,91.533,350.527,348.964,0.0
51975.0,STARLINK-3674,PAYLOAD,2022-03-22 04:00:00,15.73243798,0.0001312,53.2195,77.3719,63.9856,217.0122,-0.00030857,-0.00043782,0.0,0 STARLINK-3674,1 51975U 22025V   22081.16667824 -.00043782  00000-0 -30857-3 0  9993,2 51975  53.2195  77.3719 0001312  63.9856 217.0122 15.73243798  3278,6727.77,91.531,350.51800000000014,348.75300000000016,0.0
51975.0,STARLINK-3674,PAYLOAD,2022-03-22 14:00:01,15.73240429,0.000127,53.219,75.3103,57.9081,64.3088,-0.00080659,-0.00112511,0.0,0 STARLINK-3674,1 51975U 22025V   22081.58334491 -.00112511  00000-0 -80659-3 0  9992,2 51975  53.2190  75.3103 0001270  57.9081  64.3088 15.73240429  2264,6727.78,91.531,350.499,348.79,0.0
51975.0,STARLINK-3674,PAYLOAD,2022-03-22 20:00:01,15.7313146,0.0001172,53.2191,74.0719,70.8517,28.0863,0.00066565,0.00093569,0.0,0 STARLINK-3674,1 51975U 22025V   22081.83334491  .00093569  00000-0  66565-3 0  9999,2 51975  53.2191  74.0719 0001172  70.8517  28.0863 15.73131460  3378,6728.090999999999,91.537,350.744,349.167,0.0
51975.0,STARLINK-3674,PAYLOAD,2022-03-22 22:00:01,15.73148086,0.000123,53.2192,73.6593,73.6556,137.562,0.00062733,0.00088153,0.0,0 STARLINK-3674,1 51975U 22025V   22081.91668981  .00088153  00000-0  62733-3 0  9998,2 51975  53.2192  73.6593 0001230  73.6556 137.5620 15.73148086  2326,6728.043000000002,91.536,350.736,349.081,0.0
51975.0,STARLINK-3674,PAYLOAD,2022-03-23 14:00:01,15.73204821,0.0001101,53.2196,70.3624,61.0762,327.9208,8.8212e-05,0.0001178,0.0,0 STARLINK-3674,1 51975U 22025V   22082.58334491  .00011780  00000-0  88212-4 0  9991,2 51975  53.2196  70.3624 0001101  61.0762 327.9208 15.73204821  3492,6727.880999999999,91.533,350.487,349.006,0.0
51975.0,STARLINK-3674,PAYLOAD,2022-03-23 22:00:00,15.73217635,0.0001032,53.22,68.7114,71.6397,46.282,0.00030386,0.00042271,0.0,0 STARLINK-3674,1 51975U 22025V   22082.91667824  .00042271  00000-0  30386-3 0  9994,2 51975  53.2200  68.7114 0001032  71.6397  46.2820 15.73217635  2472,6727.845,91.532,350.404,349.016,0.0
51975.0,STARLINK-3674,PAYLOAD,2022-03-24 14:00:01,15.73194679,0.0001144,53.2195,65.414,63.8619,231.9932,0.00012021,0.00016279,0.0,0 STARLINK-3674,1 51975U 22025V   22083.58334491  .00016279  00000-0  12021-3 0  9994,2 51975  53.2195  65.4140 0001144  63.8619 231.9932 15.73194679  2583,6727.91,91.533,350.545,349.006,0.0
51975.0,STARLINK-3674,PAYLOAD,2022-03-24 22:00:00,15.73235079,0.0001196,53.2198,63.7634,78.7002,306.0786,-0.00016277,-0.00023434,0.0,0 STARLINK-3674,1 51975U 22025V   22083.91667824 -.00023434  00000-0 -16277-3 0  9990,2 51975  53.2198  63.7634 0001196  78.7002 306.0786 15.73235079  2630,6727.795,91.531,350.465,348.856,0.0
51975.0,STARLINK-3674,PAYLOAD,2022-03-25 00:00:02,15.73241669,0.0001243,53.2199,63.3516,78.8641,58.2107,-0.00042504,-0.00059953,0.0,0 STARLINK-3674,1 51975U 22025V   22084.00002315 -.00059953  00000-0 -42504-3 0  9996,2 51975  53.2199  63.3516 0001243  78.8641  58.2107 15.73241669  3714,6727.776,91.531,350.478,348.805,0.0
51975.0,STARLINK-3674,PAYLOAD,2022-03-25 14:00:01,15.73211429,0.0001273,53.2194,60.4661,71.2803,131.3476,-0.00076366,-0.00106499,0.0,0 STARLINK-3674,1 51975U 22025V   22084.58334491 -.00106499  00000-0 -76366-3 0  9993,2 51975  53.2194  60.4661 0001273  71.2803 131.3476 15.73211429  2743,6727.863,91.533,350.584,348.871,0.0
51975.0,STARLINK-3674,PAYLOAD,2022-03-25 20:00:01,15.73110133,0.0001336,53.2189,59.2276,80.6406,98.6773,0.00071877,0.00101085,0.0,0 STARLINK-3674,1 51975U 22025V   22084.83334491  .00101085  00000-0  71877-3 0  9997,2 51975  53.2189  59.2276 0001336  80.6406  98.6773 15.73110133  3845,6728.151,91.538,350.915,349.11800000000005,0.0
51975.0,STARLINK-3674,PAYLOAD,2022-03-25 22:00:01,15.73135412,0.0001409999999999,53.2189,58.815,82.5858,209.0027,0.00058777,0.00082454,0.0,0 STARLINK-3674,1 51975U 22025V   22084.91668981  .00082454  00000-0  58777-3 0  9992,2 51975  53.2189  58.8150 0001410  82.5858 209.0027 15.73135412  2796,6728.079000000002,91.537,350.89300000000014,348.996,0.0
